KUIPER-00157            
1 65970U 25228Z   25321.79245757  .00032433  00000+0  95243-3 0  9995
2 65970  51.8770 140.8496 0005675 284.9775  75.0582 15.34834478  6587
